NORAD_CAT_ID,OBJECT_NAME,OBJECT_TYPE,EPOCH,MEAN_MOTION,ECCENTRICITY,INCLINATION,RA_OF_ASC_NODE,ARG_OF_PERICENTER,MEAN_ANOMALY,BSTAR,MEAN_MOTION_DOT,MEAN_MOTION_DDOT,TLE_LINE0,TLE_LINE1,TLE_LINE2,SEMIMAJOR_AXIS,PERIOD,APOGEE,PERIGEE,DECAYED
51759.0,STARLINK-3456,PAYLOAD,2023-01-14 12:43:43,15.08868208,0.000254,53.2135,72.4019,45.4398,314.6801,0.0013434,0.00021174,0.0,0 STARLINK-3456,1 51759U 22016AX  23014.53036033  .00021174  00000-0  13434-2 0  9993,2 51759  53.2135  72.4019 0002540  45.4398 314.6801 15.08868208 51202,6917.794,95.436,541.4159999999999,537.9019999999999,0.0
51759.0,STARLINK-3456,PAYLOAD,2023-01-14 20:40:39,15.0885009,0.0002506999999999,53.2132,70.9116,46.144,313.9759,0.00095022,0.00014871,0.0,0 STARLINK-3456,1 51759U 22016AX  23014.86156458  .00014871  00000-0  95022-3 0  9993,2 51759  53.2132  70.9116 0002507  46.1440 313.9759 15.08850090 51258,6917.85,95.437,541.4490000000001,537.98,0.0
51759.0,STARLINK-3456,PAYLOAD,2023-01-15 04:37:35,15.08842032,0.0002081,53.2132,69.4279,49.7918,310.3256,0.0010841,0.00017009,0.0,0 STARLINK-3456,1 51759U 22016AX  23015.19276640  .00017009  00000-0  10841-2 0  9997,2 51759  53.2132  69.4279 0002081  49.7918 310.3256 15.08842032 51303,6917.874,95.437,541.179,538.3,0.0
51759.0,STARLINK-3456,PAYLOAD,2023-01-15 20:31:26,15.08862115,0.0002104,53.2136,66.4544,53.5307,306.5879,0.0020749,0.00032909,0.0,0 STARLINK-3456,1 51759U 22016AX  23015.85516646  .00032909  00000-0  20749-2 0  9997,2 51759  53.2136  66.4544 0002104  53.5307 306.5879 15.08862115 50277,6917.813,95.436,541.133,538.222,0.0
51759.0,STARLINK-3456,PAYLOAD,2023-01-16 12:25:17,15.08882543,0.0002024,53.2132,63.4796,59.2692,300.8499,0.002684,0.00042738,0.0,0 STARLINK-3456,1 51759U 22016AX  23016.51755814  .00042738  00000-0  26840-2 0  9992,2 51759  53.2132  63.4796 0002024  59.2692 300.8499 15.08882543 51509,6917.75,95.435,541.016,538.215,0.0
51759.0,STARLINK-3456,PAYLOAD,2023-01-16 20:22:12,15.08847961,0.0001893,53.2142,61.9933,62.6443,297.4742,0.000496,7.616e-05,0.0,0 STARLINK-3456,1 51759U 22016AX  23016.84876108  .00007616  00000-0  49600-3 0  9994,2 51759  53.2142  61.9933 0001893  62.6443 297.4742 15.08847961 51553,6917.856,95.437,541.031,538.4119999999999,0.0
51759.0,STARLINK-3456,PAYLOAD,2023-01-17 02:43:46,15.08804392,0.0001834,53.2147,60.8045,67.3498,292.7688,-0.00073889,-0.00012017,0.0,0 STARLINK-3456,1 51759U 22016AX  23017.11372969 -.00012017  00000-0 -73889-3 0  9990,2 51759  53.2147  60.8045 0001834  67.3498 292.7688 15.08804392 51599,6917.9890000000005,95.44,541.123,538.585,0.0
51759.0,STARLINK-3456,PAYLOAD,2023-01-17 09:05:19,15.08799876,0.000158,53.215,59.6154,67.8234,292.2925,0.00063189,9.772e-05,0.0,0 STARLINK-3456,1 51759U 22016AX  23017.37869876  .00009772  00000-0  63189-3 0  9990,2 51759  53.2150  59.6154 0001580  67.8234 292.2925 15.08799876 50500,6918.003000000001,95.44,540.961,538.775,0.0
51759.0,STARLINK-3456,PAYLOAD,2023-01-18 08:56:06,15.08883162,0.0001986999999999,53.2141,55.1534,75.6785,284.4428,0.0027745,0.00044198,0.0,0 STARLINK-3456,1 51759U 22016AX  23018.37229688  .00044198  00000-0  27745-2 0  9990,2 51759  53.2141  55.1534 0001987  75.6785 284.4428 15.08883162 51786,6917.7480000000005,95.435,540.988,538.239,0.0
51759.0,STARLINK-3456,PAYLOAD,2023-01-19 10:22:16,15.0885614,0.0001624,53.2148,50.3958,77.7927,282.3247,0.0021027,0.0003335,0.0,0 STARLINK-3456,1 51759U 22016AX  23019.43213499  .00033350  00000-0  21027-2 0  9996,2 51759  53.2148  50.3958 0001624  77.7927 282.3247 15.08856140 51949,6917.831,95.437,540.82,538.573,0.0
51759.0,STARLINK-3456,PAYLOAD,2023-01-19 13:33:02,15.0886739,0.0001646,53.2145,49.8006,81.3098,278.8081,0.0023889,0.00037965,0.0,0 STARLINK-3456,1 51759U 22016AX  23019.56461293  .00037965  00000-0  23889-2 0  9991,2 51759  53.2145  49.8006 0001646  81.3098 278.8081 15.08867390 50839,6917.797,95.436,540.8,538.523,0.0
51759.0,STARLINK-3456,PAYLOAD,2023-01-20 02:16:08,15.08837175,0.0001696999999999,53.2148,47.4218,92.552,267.5667,0.0020859,0.00033063,0.0,0 STARLINK-3456,1 51759U 22016AX  23020.09453847  .00033063  00000-0  20859-2 0  9996,2 51759  53.2148  47.4218 0001697  92.5520 267.5667 15.08837175 52049,6917.889,95.438,540.928,538.58,0.0
51759.0,STARLINK-3456,PAYLOAD,2023-01-20 08:37:40,15.08858956,0.0001633,53.2145,46.233,91.3566,268.7614,0.0016367,0.0002587,0.0,0 STARLINK-3456,1 51759U 22016AX  23020.35949465  .00025870  00000-0  16367-2 0  9997,2 51759  53.2145  46.2330 0001633  91.3566 268.7614 15.08858956 50958,6917.821999999999,95.436,540.817,538.558,0.0
51759.0,STARLINK-3456,PAYLOAD,2023-01-21 05:17:41,15.0884674,0.0001893,53.2142,42.36600000000001,99.4433,260.6773,0.0017108,0.0002705,0.0,0 STARLINK-3456,1 51759U 22016AX  23021.22062396  .00027050  00000-0  17108-2 0  9999,2 51759  53.2142  42.3660 0001893  99.4433 260.6773 15.08846740 52214,6917.86,95.437,541.034,538.415,0.0
51759.0,STARLINK-3456,PAYLOAD,2023-01-21 10:03:51,15.08838283,0.0001757,53.2139,41.4736,87.3683,272.751,0.00077281,0.00012032,0.0,0 STARLINK-3456,1 51759U 22016AX  23021.41934525  .00012032  00000-0  77281-3 0  9995,2 51759  53.2139  41.4736 0001757  87.3683 272.7510 15.08838283 52245,6917.886,95.438,540.966,538.535,0.0
51759.0,STARLINK-3456,PAYLOAD,2023-01-22 08:19:14,15.08879199,0.0001788,53.2137,37.3099,83.8952,276.2244,0.0013449,0.00021204,0.0,0 STARLINK-3456,1 51759U 22016AX  23022.34669290  .00021204  00000-0  13449-2 0  9998,2 51759  53.2137  37.3099 0001788  83.8952 276.2244 15.08879199 52382,6917.761,95.435,540.862,538.389,0.0
51759.0,STARLINK-3456,PAYLOAD,2023-01-22 17:51:32,15.08864568,0.0001859,53.2139,35.526,92.1889,267.9316,0.00034752,5.251e-05,0.0,0 STARLINK-3456,1 51759U 22016AX  23022.74413139  .00005251  00000-0  34752-3 0  9996,2 51759  53.2139  35.5260 0001859  92.1889 267.9316 15.08864568 52443,6917.805,95.436,540.956,538.384,0.0
51759.0,STARLINK-3456,PAYLOAD,2023-01-23 01:48:28,15.0884048,0.0001810999999999,53.2137,34.0384,95.7497,264.3701,-0.00028315,-4.792e-05,0.0,0 STARLINK-3456,1 51759U 22016AX  23023.07533336 -.00004792  00000-0 -28315-3 0  9994,2 51759  53.2137  34.0384 0001811  95.7497 264.3701 15.08840480 52495,6917.879,95.438,540.997,538.491,0.0
51759.0,STARLINK-3456,PAYLOAD,2023-01-24 06:25:26,15.08837079,0.0002038,53.2147,28.6853,90.5245,269.5981,0.00044766,6.843e-05,0.0,0 STARLINK-3456,1 51759U 22016AX  23024.26766424  .00006843  00000-0  44766-3 0  9997,2 51759  53.2147  28.6853 0002038  90.5245 269.5981 15.08837079 52679,6917.889,95.438,541.164,538.344,0.0
51759.0,STARLINK-3456,PAYLOAD,2023-01-25 06:16:13,15.08840715,0.000198,53.2147,24.2207,104.3036,255.8176,0.00027005,4.012e-05,0.0,0 STARLINK-3456,1 51759U 22016AX  23025.26126418  .00004012  00000-0  27005-3 0  9994,2 51759  53.2147  24.2207 0001980 104.3036 255.8176 15.08840715 52823,6917.878000000001,95.438,541.113,538.373,0.0
51759.0,STARLINK-3456,PAYLOAD,2023-01-25 17:23:55,15.08842203,0.0001828,53.2145,22.1395,105.0146,255.1049,0.00026644,3.955e-05,0.0,0 STARLINK-3456,1 51759U 22016AX  23025.72494452  .00003955  00000-0  26644-3 0  9994,2 51759  53.2145  22.1395 0001828 105.0146 255.1049 15.08842203 51765,6917.874,95.437,541.003,538.474,0.0
51759.0,STARLINK-3456,PAYLOAD,2023-01-26 09:17:46,15.08850226,0.0001875,53.2148,19.1685,93.5455,266.5752,0.00027784,4.138e-05,0.0,0 STARLINK-3456,1 51759U 22016AX  23026.38734412  .00004138  00000-0  27784-3 0  9990,2 51759  53.2148  19.1685 0001875  93.5455 266.5752 15.08850226 51864,6917.849,95.437,541.011,538.4169999999999,0.0
51759.0,STARLINK-3456,PAYLOAD,2023-01-27 05:57:47,15.08847668,0.0001659,53.2146,15.3013,95.8184,264.2997,0.00020085,2.911e-05,0.0,0 STARLINK-3456,1 51759U 22016AX  23027.24846073  .00002911  00000-0  20085-3 0  9997,2 51759  53.2146  15.3013 0001659  95.8184 264.2997 15.08847668 53122,6917.857,95.437,540.87,538.5740000000001,0.0
51759.0,STARLINK-3456,PAYLOAD,2023-01-28 05:48:34,15.08841302,0.0001439,53.2142,10.8417,88.2361,271.8796,0.00011336,1.517e-05,0.0,0 STARLINK-3456,1 51759U 22016AX  23028.24206411  .00001517  00000-0  11336-3 0  9994,2 51759  53.2142  10.8417 0001439  88.2361 271.8796 15.08841302 53271,6917.876,95.437,540.737,538.746,0.0
51759.0,STARLINK-3456,PAYLOAD,2023-01-28 07:23:57,15.08843742,0.0001491,53.2147,10.5454,90.7371,269.3792,0.0001349,1.86e-05,0.0,0 STARLINK-3456,1 51759U 22016AX  23028.30830348  .00001860  00000-0  13490-3 0  9997,2 51759  53.2147  10.5454 0001491  90.7371 269.3792 15.08843742 52155,6917.869,95.437,540.765,538.702,0.0
51759.0,STARLINK-3456,PAYLOAD,2023-01-28 21:42:25,15.08839738,0.000144,53.2146,7.8691,99.1279,260.9876,0.00010024,1.308e-05,0.0,0 STARLINK-3456,1 51759U 22016AX  23028.90446541  .00001308  00000-0  10024-3 0  9998,2 51759  53.2146   7.8691 0001440  99.1279 260.9876 15.08839738 52240,6917.881,95.438,540.742,538.75,0.0
51759.0,STARLINK-3456,PAYLOAD,2023-01-29 21:33:12,15.08836484,0.0001442,53.2146,3.4086,98.4301,261.6854,-7.7356e-07,-3e-06,0.0,0 STARLINK-3456,1 51759U 22016AX  23029.89806640 -.00000300  00000-0 -77356-6 0  9994,2 51759  53.2146   3.4086 0001442  98.4301 261.6854 15.08836484 52395,6917.891,95.438,540.754,538.759,0.0
51759.0,STARLINK-3456,PAYLOAD,2023-01-30 07:05:31,15.08839379,0.0001454,53.2147,1.6242,96.4795,263.6362,6.7151e-05,7.81e-06,0.0,0 STARLINK-3456,1 51759U 22016AX  23030.29550636  .00000781  00000-0  67151-4 0  9992,2 51759  53.2147   1.6242 0001454  96.4795 263.6362 15.08839379 53582,6917.882,95.438,540.753,538.741,0.0
51759.0,STARLINK-3456,PAYLOAD,2023-01-30 21:24:00,15.0882828,0.0001414,53.2156,358.9473,96.3296,263.7857,0.00022822,3.345e-05,0.0,0 STARLINK-3456,1 51759U 22016AX  23030.89167185  .00003345  00000-0  22822-3 0  9995,2 51759  53.2156 358.9473 0001414  96.3296 263.7857 15.08828280 52541,6917.916,95.438,540.759,538.803,0.0
